{
    "links": {
        "self": "http://www.neowsapp.com/rest/v1/neo/3841951?api_key=iIulBulltgU6a56xZRHN4H3l9WmuAYTsLGpBGhQ2"
    },
    "id": "3841951",
    "neo_reference_id": "3841951",
    "name": "(2019 JW7)",
    "designation": "2019 JW7",
    "nasa_jpl_url": "http://ssd.jpl.nasa.gov/sbdb.cgi?sstr=3841951",
    "absolute_magnitude_h": 25.4,
    "estimated_diameter": {
        "kilometers": {
            "estimated_diameter_min": 0.022108281,
            "estimated_diameter_max": 0.0494356193
        },
        "meters": {
            "estimated_diameter_min": 22.1082810359,
            "estimated_diameter_max": 49.435619262
        },
        "miles": {
            "estimated_diameter_min": 0.0137374447,
            "estimated_diameter_max": 0.0307178602
        },
        "feet": {
            "estimated_diameter_min": 72.5337327539,
            "estimated_diameter_max": 162.1903570994
        }
    },
    "is_potentially_hazardous_asteroid": false,
    "close_approach_data": [
        {
            "close_approach_date": "2019-05-13",
            "close_approach_date_full": "2019-May-13 10:28",
            "epoch_date_close_approach": 1557743280000,
            "relative_velocity": {
                "kilometers_per_second": "19.9631853845",
                "kilometers_per_hour": "71867.4673843732",
                "miles_per_hour": "44655.6493866956"
            },
            "miss_distance": {
                "astronomical": "0.0199301479",
                "lunar": "7.7528275331",
                "kilometers": "2981507.674624973",
                "miles": "1852622.9617437074"
            },
            "orbiting_body": "Earth"
        }
    ],
    "orbital_data": {
        "orbit_id": "1",
        "orbit_determination_date": "2019-05-24 09:42:11",
        "first_observation_date": "2019-05-13",
        "last_observation_date": "2019-05-15",
        "data_arc_in_days": 2,
        "observations_used": 28,
        "orbit_uncertainty": "8",
        "minimum_orbit_intersection": ".0191564",
        "jupiter_tisserand_invariant": "3.139",
        "epoch_osculation": "2458618.5",
        "eccentricity": ".6567135192654047",
        "semi_major_axis": "2.370012089937782",
        "inclination": "22.09588278089883",
        "ascending_node_longitude": "230.409477849541",
        "orbital_period": "1332.675056107987",
        "perihelion_distance": ".8135931096531844",
        "perihelion_argument": "63.25269880092917",
        "aphelion_distance": "3.92643107022238",
        "perihelion_time": "2458658.442680874791",
        "mean_anomaly": "349.2101491289865",
        "mean_motion": ".270133366982468",
        "equinox": "J2000",
        "orbit_class": {
            "orbit_class_type": "APO",
            "orbit_class_description": "Near-Earth asteroid orbits which cross the Earth’s orbit similar to that of 1862 Apollo",
            "orbit_class_range": "a (semi-major axis) > 1.0 AU; q (perihelion) < 1.017 AU"
        }
    },
    "is_sentry_object": false
}